ONEWEB-0555             
1 56057U 23043M   25179.89739264  .00000012  00000+0 -12038-5 0  9999
2 56057  87.9049 299.1848 0001475  87.3954 272.7346 13.16594371113383
ONEWEB-0557             
1 56058U 23043N   25179.83564391 -.00000038  00000+0 -13247-3 0  9991
2 56058  87.9050 299.2193 0000769 130.2575 229.8623 13.16594710112468
ONEWEB-0558             
1 56059U 23043P   25179.94041819  .00000059  00000+0  11194-3 0  9999
2 56059  87.9272 314.4440 0002378  97.6003 262.5401 13.21827326111577
ONEWEB-0559             
1 56060U 23043Q   25179.92938706  .00000030  00000+0  40769-4 0  9999
2 56060  87.9269 314.4385 0002225 107.5443 252.5934 13.21824647111587
ONEWEB-0566             
1 56061U 23043R   25179.92309598  .00001961  00000+0  47161-2 0  9996
2 56061  87.9267 314.4393 0002159 101.4447 258.6929 13.21816470111562
ONEWEB-0568             
1 56062U 23043S   25179.70107039  .00000064  00000+0  13416-3 0  9999
2 56062  87.9063 299.2170 0001733  93.8317 266.3013 13.16593789112466
ONEWEB-0574             
1 56063U 23043T   25179.91676658  .00000013  00000+0  14330-6 0  9994
2 56063  87.9265 314.4282 0001746 103.6033 256.5295 13.21824365111605
ONEWEB-0575             
1 56064U 23043U   25179.84673080  .00000067  00000+0  14156-3 0  9995
2 56064  87.9053 299.1976 0001473 106.6992 253.4300 13.16592827112472
ONEWEB-0576             
1 56065U 23043V   25179.82772912  .00000027  00000+0  36781-4 0  9993
2 56065  87.9052 299.1921 0001707  96.6603 263.4723 13.16593965112462
ONEWEB-0577             
1 56066U 23043W   25179.83404286  .00000007  00000+0 -15988-4 0  9996
2 56066  87.9055 299.1895 0001323 113.1131 247.0139 13.16592472112495
ONEWEB-0578             
1 56067U 23043X   25179.90413715 -.00000029  00000+0 -10108-3 0  9995
2 56067  87.9270 314.4417 0001773  96.6895 263.4441 13.21826965111565
ONEWEB-0579             
1 56068U 23043Y   25179.89467503  .00000011  00000+0 -45297-5 0  9997
2 56068  87.9267 314.4289 0002100 105.4469 254.6897 13.21826930112481
ONEWEB-0581             
1 56069U 23043Z   25179.84039619  .00000042  00000+0  76418-4 0  9997
2 56069  87.9049 299.2178 0001719 113.7771 246.3540 13.16593585112462
ONEWEB-0609             
1 56070U 23043AA  25179.89747163 -.00000149  00000+0 -42981-3 0  9991
2 56070  87.9061 329.6482 0001962  95.4993 264.6361 13.15547690110890
ONEWEB-0613             
1 56071U 23043AB  25179.89271987 -.00000088  00000+0 -26787-3 0  9996
2 56071  87.9064 329.6605 0002033 101.4613 258.6745 13.15547882110890
ONEWEB-0630             
1 56072U 23043AC  25179.88796161 -.00000073  00000+0 -22669-3 0  9991
2 56072  87.9062 329.6384 0002138  98.7500 261.3872 13.15547808110881
ONEWEB-0632             
1 56073U 23043AD  25179.80715516  .00000033  00000+0  54579-4 0  9999
2 56073  87.9062 329.6747 0001773 103.9430 256.1897 13.15548545109965
ONEWEB-0633             
1 56074U 23043AE  25179.80081141  .00000032  00000+0  50032-4 0  9999
2 56074  87.9058 329.6429 0002303  98.5633 261.5759 13.15548374109947
ONEWEB-0634             
1 56075U 23043AF  25179.78654839  .00000195  00000+0  48380-3 0  9999
2 56075  87.9063 329.6816 0002020  89.1706 270.9656 13.15548312109938
ONEWEB-0635             
1 56076U 23043AG  25179.93391610  .00000122  00000+0  29093-3 0  9992
2 56076  87.9035 329.6348 0001654 105.2809 254.8504 13.15548721109986
ONEWEB-0636             
1 56077U 23043AH  25179.92598653  .00000082  00000+0  18396-3 0  9997
2 56077  87.9044 329.6465 0001705 104.0927 256.0393 13.15547865109968
ONEWEB-0637             
1 56078U 23043AJ  25179.91964686  .00000011  00000+0 -50338-5 0  9997
2 56078  87.9062 329.6535 0001520  93.6772 266.4532 13.15550527109984
ONEWEB-0647             
1 56079U 23043AK  25179.91490217 -.00000040  00000+0 -13995-3 0  9991
2 56079  87.9061 329.6638 0001875 103.6235 256.5104 13.15548201109977
ONEWEB-0651             
1 56080U 23043AL  25179.91013901 -.00000119  00000+0 -35056-3 0  9993
2 56080  87.9063 329.6531 0001556 100.5369 259.5936 13.15547564111175
ONEWEB-0718             
1 56081U 23043AM  25179.90539780 -.00000092  00000+0 -27876-3 0  9992
2 56081  87.9061 329.6374 0002007  84.0251 276.1108 13.15548229109988
ONEWEB-0561             
1 56710U 23068A   25179.94385468  .00000049  00000+0  89454-4 0  9995
2 56710  87.9254 344.8203 0001661 111.4840 248.6471 13.20772761102879
ONEWEB-0668             
1 56711U 23068B   25179.84276346  .00000103  00000+0  23587-3 0  9994
2 56711  87.9064 299.1795 0001851  83.1948 276.9393 13.16593513105288
ONEWEB-0676             
1 56712U 23068C   25179.82298701 -.00000008  00000+0 -53782-4 0  9999
2 56712  87.9052 299.2098 0001817 115.3949 244.7370 13.16594111105209
ONEWEB-0677             
1 56713U 23068D   25179.93280038  .00000011  00000+0 -43115-5 0  9999
2 56713  87.9257 344.7999 0001540  95.7207 264.4102 13.20770189103176
ONEWEB-0678             
1 56714U 23068E   25179.79764775  .00000042  00000+0  78504-4 0  9991
2 56714  87.9064 329.6301 0002124 103.9023 256.2344 13.15547160102822
ONEWEB-0679             
1 56715U 23068F   25179.86809494  .00000051  00000+0  10102-3 0  9997
2 56715  87.9053 299.1931 0001411  96.6656 263.4636 13.16593117105235
ONEWEB-0680             
1 56716U 23068G   25179.89784818 -.00000004  00000+0 -40511-4 0  9991
2 56716  87.9252 314.4343 0001689  77.8137 282.3186 13.21827378104422
ONEWEB-0681             
1 56717U 23068H   25179.83238094 -.00000671  00000+0 -16552-2 0  9992
2 56717  87.9262 314.4756 0001270 133.3346 226.7894 13.21831534104403
ONEWEB-0682             
1 56718U 23068J   25179.89985215 -.00000081  00000+0 -25047-3 0  9998
2 56718  87.9061 329.6400 0001569  80.3046 279.8261 13.15549723103005
ONEWEB-0683             
1 56719U 23068K   25179.92124084  .00000008  00000+0 -13149-4 0  9991
2 56719  87.9060 329.6064 0001760  87.5814 272.5518 13.15548339102978
ONEWEB-0684             
1 56720U 23068L   25179.92916008  .00000046  00000+0  86813-4 0  9997
2 56720  87.9036 329.6206 0003279 101.4327 258.7172 13.15548136102802
ONEWEB-0686             
1 56721U 23068M   25179.78181758  .00000109  00000+0  25133-3 0  9995
2 56721  87.9048 299.2452 0002043  92.9980 267.1384 13.16594009105216
ONEWEB-0694             
1 56722U 23068N   25179.90055880 -.00000044  00000+0 -14798-3 0  9991
2 56722  87.9055 299.1404 0001745  88.6948 271.4383 13.16594227105281
ONEWEB-0696             
1 56723U 23068P   25179.81031726  .00000041  00000+0  75854-4 0  9991
2 56723  87.9063 329.6816 0002078 103.0718 257.0645 13.15548173102909
ONEWEB-0703             
1 56724U 23068Q   25179.89588243 -.00000079  00000+0 -24392-3 0  9994
2 56724  87.9044 329.6601 0002400 124.6689 235.4667 13.15548694102807
ONEWEB-0721             
1 56725U 23068R   25179.80761134  .00000067  00000+0  12697-3 0  9998
2 56725  86.6805 198.1286 0002006  91.8683 268.2680 13.22439187111238
ONEWEB-0015             
1 61594U 24188A   25179.75023060  .00000519  00000+0  14295-2 0  9992
2 61594  87.8864  91.5431 0001297  73.3025 286.8246 13.11416083 38139
ONEWEB-0687             
1 61595U 24188B   25179.83007366 -.00133148  00000+0 -31614+0 0  9991
2 61595  87.9316  76.2615 0003373  68.1430 292.0063 13.24136988 39365
ONEWEB-0688             
1 61596U 24188C   25179.02390413 -.00045796  00000+0 -10746+0 0  9995
2 61596  87.9322  76.4241 0001224  50.3899 309.7345 13.24294333 39251
ONEWEB-0689             
1 61597U 24188D   25179.78412851 -.00000507  00000+0 -14656-2 0  9998
2 61597  87.8805  91.5248 0001978  66.0001 294.1334 13.11417301 38136
ONEWEB-0690             
1 61598U 24188E   25179.79430907 -.00000252  00000+0 -74620-3 0  9997
2 61598  87.8855  91.4696 0002189  97.2981 262.8395 13.11417575 38318
ONEWEB-0691             
1 61599U 24188F   25179.71291345 -.00000717  00000+0 -20600-2 0  9995
2 61599  87.8749  91.5071 0001473  77.1169 283.0123 13.11417239 38152
ONEWEB-0692             
1 61600U 24188G   25179.80957273  .00000335  00000+0  90872-3 0  9990
2 61600  87.8832  91.5448 0002856  70.3507 289.7928 13.11419712 38157
ONEWEB-0693             
1 61601U 24188H   25179.78970558 -.00140174  00000+0 -35412+0 0  9992
2 61601  87.9160  76.2892 0004038  73.1573 287.0003 13.20003840 39342
ONEWEB-0695             
1 61602U 24188J   25179.78582844 -.00000474  00000+0 -13729-2 0  9998
2 61602  87.8840  91.5341 0002336  64.9746 295.1624 13.11416721 38147
ONEWEB-0697             
1 61603U 24188K   25179.81805264  .00000651  00000+0  18004-2 0  9993
2 61603  87.8818  91.5270 0002794  72.3430 287.8003 13.11416511 38130
ONEWEB-0698             
1 61604U 24188L   25179.79600599 -.00000289  00000+0 -85100-3 0  9996
2 61604  87.8832  91.5410 0002954  87.6823 272.4643 13.11417453 38154
ONEWEB-0699             
1 61605U 24188M   25179.83299436 -.00000969  00000+0 -28134-2 0  9994
2 61605  87.8818 106.7209 0002515  75.6129 284.5277 13.10374856 37034
ONEWEB-0700             
1 61606U 24188N   25179.83466683 -.00000420  00000+0 -12384-2 0  9997
2 61606  87.8769 106.6311 0002426  63.1021 297.0354 13.10376214 37021
ONEWEB-0701             
1 61607U 24188P   25179.77492139  .00000408  00000+0  11328-2 0  9997
2 61607  87.8826 106.7390 0002871  74.1030 286.0413 13.10375634 37029
ONEWEB-0702             
1 61608U 24188Q   25179.68919137 -.00000091  00000+0 -29240-3 0  9993
2 61608  87.8760  91.5389 0002776  66.4266 293.7154 13.11415469 38159
ONEWEB-0704             
1 61609U 24188R   25179.83965145 -.00000094  00000+0 -30687-3 0  9991
2 61609  87.8854 106.6586 0002838  64.3128 295.8292 13.10376523 37010
ONEWEB-0705             
1 61610U 24188S   25179.84462034  .00000068  00000+0  15841-3 0  9997
2 61610  87.8814 106.7114 0002180  43.0969 317.0329 13.10378912 29184
ONEWEB-0706             
1 61611U 24188T   25179.82386520 -.00000660  00000+0 -19285-2 0  9996
2 61611  87.8834 106.7358 0002199  68.0781 292.0579 13.10371704 37108
